catid,lat,lng,Description,Name,PHOTOURL,Opening_Hours,ADDRESSSTREETNAME
TouristAttraction,103.84763,1.28094,"Beautifully restored, Thian Hock Keng Temple is the oldest Chinese temple in Singapore and dedicated to Mazu, the Goddess of the Sea.","Thian Hock Keng Temple, Singapore",www.yoursingapore.com/content/dam/desktop/global/see-do-singapore/culture-heritage/thian-hock-kheng-temple-carousel01-rect.jpg,,158 Telok Ayer Street
TouristAttraction,103.89942,1.31007,This engaging heritage attraction takes you through the history and culture of the Eurasian community in Singapore.,Eurasian Heritage Centre: Singapore Attraction,www.yoursingapore.com/content/dam/desktop/global/see-do-singapore/culture-heritage/eurasian-heritage-centre-carousel01-rect.jpg,,139 Ceylon Road
TouristAttraction,103.8373356,1.2772186,"With many beautifully preserved examples on hand today, the shophouses in Singapore are prime examples of timeless architectural appeal.",Shophouses,www.yoursingapore.com/content/dam/desktop/global/see-do-singapore/architecture/shophouses-typology-carousel01-rect.jpg,,UPDATING
TouristAttraction,103.84142,1.27549,The soaring lines and stunning views of majestic residential estate Pinnacle at Duxton will make you forget your fear of heights. Almost.,Pinnacle@Duxton,www.yoursingapore.com/content/dam/desktop/global/see-do-singapore/architecture/the-pinnacle-duxton-carousel01-rect.jpg,,1 Cantonment Road
TouristAttraction,103.86285,1.30291,The Hajjah Fatimah Mosque will captivate you with its intriguing blend of cross-cultural architectural influences.,Hajjah Fatimah Mosque,/content/dam/desktop/global/see-do-singapore/architecture/hajjah-fatimah-mosque-carousel01-rect.jpg,,4001 Beach Road
TouristAttraction,103.78314,1.28551,Embark on an unforgettable journey into Chinese folklore and mythology at the Haw Par Villa theme park.,Haw Par Villa: Singapore Theme Park,UPDATING,,262 Pasir Panjang Road
TouristAttraction,103.83731,1.27731,"This heritage house lends rich insight into Singapore's Peranakan community, thanks to beautifully preserved architecture and artefacts.",NUS Baba House - Singapore Peranakan Architecture,www.yoursingapore.com/content/dam/desktop/global/see-do-singapore/culture-heritage/baba-house-carousel02-rect.jpg,,157 Neil Road
TouristAttraction,103.841222,1.29316,"Restored by expert craftsmen from China, the Hong San See temple has been brought back to its full glory.",Hong San See Temple Singapore,UPDATING,,31 Mohamed Sultan Road
TouristAttraction,103.85157,1.29354,The queen of Singapore cinemas will soon reclaim her crown as the premier entertainment hub when Capitol Building reopens next year.,Capitol Building Singapore,www.yoursingapore.com/content/dam/desktop/global/see-do-singapore/architecture/capitol-building-carousel01-rect-norender.jpg,,11 Stamford Road
TouristAttraction,103.85528,1.28986,This boldly designed performing arts centre has become a memorable part of Singapore’s skyline.,Esplanade Theatre,www.yoursingapore.com/content/dam/desktop/global/see-do-singapore/architecture/the-esplanade-theatres-on-the-bay-carousel01-rect.jpg,,1 Esplanade Drive
TouristAttraction,103.863613,1.281568,"The lush and beautiful Gardens by the Bay is dominated by the sleekly sculptured biodomes – marvels of architecture, design and engineering.",Gardens by the Bay,www.yoursingapore.com/content/dam/desktop/global/see-do-singapore/architecture/gardens-by-the-bay-carousel01-rect.jpg,,18 Marina Gardens Drive
TouristAttraction,103.80305,1.28199,There’s more than meets the eye in The Interlace’s artful arrangement of residential blocks.,The Interlace,UPDATING,,180-226 Depot Road
TouristAttraction,103.846522,1.285563,PARKROYAL on Pickering is a luxurious garden oasis in downtown Singapore.,PARKROYAL on Pickering,www.yoursingapore.com/content/dam/desktop/global/see-do-singapore/architecture/parkroyal-pickering-carousel01-rect.jpg,,3 Upper Pickering Street
TouristAttraction,103.8516,1.3029,How can something that fits so perfectly into a cityscape evoke nature as well? It all lies in the design of Lasalle College of the Arts.,Lasalle College of the Arts,www.yoursingapore.com/content/dam/desktop/global/see-do-singapore/architecture/503-lasalle-college-of-the-arts-carousel01-rect..jpg,,1 McNally Street
TouristAttraction,103.85128,1.2897,"From dispensing justice to displaying art, the Old Supreme Court undergoes an overhaul for its new role as the National Gallery Singapore.",Old Supreme Court Singapore,www.yoursingapore.com/content/dam/desktop/global/see-do-singapore/architecture/old-supreme-court-carousel01-rect.jpg,,1 St Andrew's Road
TouristAttraction,103.8336,1.28351,Take a walk back in time through the Art Deco architecture in the heritage neighbourhood of Tiong Bahru.,SIT Flats Singapore,www.yoursingapore.com/content/dam/desktop/global/see-do-singapore/architecture/sit-flat-carousel01-rect.jpg,,Seng Poh Road and Tiong Bahru Road
TouristAttraction,103.85044,1.28072,"The grande dame of markets in Singapore, Lau Pa Sat blends history, striking architecture and scrumptious local food into one heady experience.",Lau Pa Sat Singapore,www.yoursingapore.com/content/dam/desktop/global/see-do-singapore/architecture/lau-pa-sat-carousel01-rect.jpg,,18 Raffles Quay
TouristAttraction,103.85986,1.30309,The Malay Heritage Centre is a must-visit if you’re keen on learning about the rich heritage and culture of Singapore’s Malay community.,"Malay Heritage Centre, Singapore",www.yoursingapore.com/content/dam/desktop/global/see-do-singapore/culture-heritage/malay-heritage-centre-carousel01-rect.jpg,,85 Sultan Gate
TouristAttraction,103.8492,1.29421,"Get to know Singapore’s vibrant Peranakan community and history at this top-notch museum, filled with fine artefacts and fun exhibits.",Peranakan Museum Singapore: History & Culture,www.yoursingapore.com/content/dam/desktop/global/see-do-singapore/culture-heritage/peranakan-museum-carousel01-rect.jpg,,39 Armenian Street
TouristAttraction,103.85404,1.29579,"Hark back to a golden age of elegant refinement and gracious living at Raffles Singapore, where the past reawakens to glorious life.",Raffles Singapore,www.yoursingapore.com/content/dam/desktop/global/see-do-singapore/architecture/raffles-hotel-carousel03-rect.jpg,,1 Beach Road
TouristAttraction,103.80459,1.2784,A former British military camp is now Asia's new Destination for Contemporary Art.,Gillman Barracks – YourSingapore,www.yoursingapore.com/content/dam/desktop/global/see-do-singapore/arts/543-GillmanBarracks-Carousel01-rect.jpg,,9 Lock Road
TouristAttraction,103.84883,1.29689,Singapore’s oldest museum is a progressive showcase of the country’s history and culture.,National Museum of Singapore,www.yoursingapore.com/content/dam/desktop/global/see-do-singapore/history/national-museum-of-singapore-carousel01-rect.jpg,,93 Stamford Road
TouristAttraction,103.87584,1.36431,"Located in Hougang, this is the largest Japanese cemetery in Southeast Asia and the burial ground of Singapore’s early Japanese community.",The Japanese Cemetery Park,www.yoursingapore.com/content/dam/desktop/global/see-do-singapore/history/japanese-cemetery-park-carousel01-rect.jpg,,825B Chuan Hoe Avenue
TouristAttraction,103.85238,1.28704,Dalhousie Obelisk at Empress Place is a famous architectural landmark in Singapore.,"Dalhousie Obelisk, a Singapore Landmark",www.yoursingapore.com/content/dam/desktop/global/see-do-singapore/history/dalhousie-obelisk-carousel01-rect.jpg,,1 Empress Place
TouristAttraction,103.850845,1.287766,"The sculpture depicts Sir Stamford Raffles, founder of modern Singapore. Two statues exist, at the Raffles Landing Site and Empress Place.",Raffles Statue â€“ Sir Stamford Raffles Landing Site,UPDATING,,"Raffles Landing Site , 59 Boat Quay"
TouristAttraction,103.8487,1.29294,The Singapore Philatelic Museum offers windows into Singapore and the world through stamps.,Singapore Philatelic Museum,www.yoursingapore.com/content/dam/desktop/global/see-do-singapore/history/singapore-philatetic-museum-carousel01-rect.jpg,,23-B Coleman Street
TouristAttraction,103.853027,1.288483,This gazetted national monument at Esplanade Park commemorates one of Singapore’s heroes from World War II.,Lim Bo Seng Memorial,www.yoursingapore.com/content/dam/desktop/global/see-do-singapore/history/lim-bo-seng-memorial-carousel01-rect.jpg,,"Esplanade Park, Connaught Drive"
TouristAttraction,103.75749,1.41903,The Kranji War Memorial in Singapore honours the men and women from the Commonwealth who died in the line of duty during World War II.,Kranji War Memorial Landmark in Singapore,www.yoursingapore.com/content/dam/desktop/global/see-do-singapore/history/kranji-war-memorial-carousel01-rect.jpg,,9 Woodlands Road
TouristAttraction,103.854217,1.289954,This marker at Esplanade Park was one of the eleven World War II markers erected in 1995 to commemorate the 50th anniversary of the end of World War II.,Indian National Army (INA) Monument in Singapore,www.yoursingapore.com/content/dam/desktop/global/see-do-singapore/history/indian-national-army-carousel01-rect.jpg,,Esplanade Park
TouristAttraction,103.79433,1.27954,"This heritage centre relives the Battle of Pasir Panjang, one of the fiercest battles fought against the Japanese in Singapore during World War II.",Reflections at Bukit Chandu: Singapore War Memorial,www.yoursingapore.com/content/dam/desktop/global/see-do-singapore/history/reflections-at-bukit-chandu-carousel01-rect.jpg,,31-K Pepys Road
TouristAttraction,103.8538376,1.290348,This war memorial in Esplanade Park honours the heroes who fought and died during World War I and World War II.,The Cenotaph - a Singapore War Memorial Landmark,www.yoursingapore.com/content/dam/desktop/global/see-do-singapore/history/cenotaph-carousel01-rect.jpg,,"Esplanade Park, Connaught Drive"
TouristAttraction,103.854618,1.293123,"Situated at the War Memorial Park in Beach Road, this memorial commemorates civilian victims of the Japanese Occupation in Singapore.",The Civilian War Memorial park in Singapore,UPDATING,,Bras Basah Road & Beach Road intersection
TouristAttraction,103.85258,1.30779,"Sri Veeramakaliamman Temple is one of Singapore’s oldest Hindu temples, in the heart of Little India.",Sri Veeramakaliamman Temple: Hindu Temple in Singapore,www.yoursingapore.com/content/dam/desktop/global/see-do-singapore/culture-heritage/sri-veeramakaliamman-temple-carousel01-rect.jpg,,141 Serangoon Road
TouristAttraction,103.85081,1.29821,"The Maghain Aboth Synagogue is a gem in more ways than one, providing both a snapshot of history and a glimpse into a rich culture.",Maghain Aboth Synagogue,UPDATING,,24/26 Waterloo Street
TouristAttraction,103.859171,1.302379,"Also known as Masjid Sultan, the impressive Sultan Mosque in historic Kampong Glam is the focal point for Singapore’s Muslim community.",Sultan Mosque (Masjid Sultan) Singapore,UPDATING,,3 Muscat Street
TouristAttraction,103.84538,1.28243,"Located in Chinatown, the Sri Mariamman Temple dates back to 1827 and is the oldest Hindu temple in Singapore.",Sri Mariamman Temple: Hindu Temple in Singapore,www.yoursingapore.com/content/dam/desktop/global/see-do-singapore/culture-heritage/sri-mariamman-temple-carousel02-rect.jpg,,244 South Bridge Road
TouristAttraction,103.84966,1.29293,The oldest Christian church in Singapore is an architectural masterpiece from the early 19th century.,Armenian Church in Singapore,www.yoursingapore.com/content/dam/desktop/global/see-do-singapore/culture-heritage/armenian-church-carousel01-rect.jpg,,60 Hill Street
TouristAttraction,103.85168,1.29526,"Whether functioning as a school or a lifestyle and entertainment complex, it appears the beauty of CHIJMES is only equalled by its versatility.",CHIJMES Singapore,www.yoursingapore.com/content/dam/desktop/global/see-do-singapore/architecture/chijmes-carousel01-rect.jpg,,30 Victoria Street
TouristAttraction,103.85231,1.29249,Singapore's largest cathedral is a stellar example of colonial-era architecture and heritage.,St Andrew’s Cathedral- Singapore Architecture Landmark,www.yoursingapore.com/content/dam/desktop/global/see-do-singapore/culture-heritage/st-andrews-cathedral-temple-carousel01-rect-norender.jpg,,11 St Andrew's Road
TouristAttraction,103.85929,1.28624,Catch world-class touring exhibitions at this premier exhibition space.,ArtScience Museum Singapore,www.yoursingapore.com/content/dam/desktop/global/see-do-singapore/arts/art-science-musuem-carousel01-rect.jpg,,6 Bayfront Ave
TouristAttraction,103.76883,1.35232,The Old Ford Factory holds an archive of memories about Singapore's wartime occupation by the Japanese.,Old Ford Factory Singapore Museum,www.yoursingapore.com/content/dam/desktop/global/see-do-singapore/history/memories-at-ford-factory-carousel01-rect.jpg,,351 Upper Bukit Timah Road
TouristAttraction,103.84452,1.28343,The rare collection of currencies on display here tells Singapore’s story through the money it has used over the years.,Singapore Coins and Notes Museum & Museum Singapore,www.yoursingapore.com/content/dam/desktop/global/see-do-singapore/history/singapore-coins-and-notes-museum-carousel01-rect.jpg,,"40 Pagoda Street, Level 1"
TouristAttraction,103.84513,1.27987,The Singapore City Gallery tells the story of the city’s physical transformation.,Singapore City Gallery,www.yoursingapore.com/content/dam/desktop/global/see-do-singapore/history/singapore-city-gallery-carousel02-rect.jpg,,"45 Maxwell Road, The URA Centre"
TouristAttraction,103.97403,1.36218,Changi Museum provides an emotional exploration of Singapore’s wartime history during the Japanese Occupation.,Changi Museum Singapore,www.yoursingapore.com/content/dam/desktop/global/see-do-singapore/history/changi-museum-carousel01-rect.jpg,,1000 Upper Changi Road North
TouristAttraction,103.85439,1.29631,This toy museum will delight both adults and kids with the vast collection of vintage toys and memorabilia from around the world.,MINT Museum of Toys Singapore & Toy Museum,www.yoursingapore.com/content/dam/desktop/global/see-do-singapore/history/mint-museum-of-toys-carousel02-rect.jpg,,26 Seah Street
TouristAttraction,103.68398,1.34379,The Chinese Heritage Centre in Singapore is where you can find out more about overseas Chinese communities and their culture.,"Chinese Heritage Centre, Singapore",www.yoursingapore.com/content/dam/desktop/global/see-do-singapore/culture-heritage/chinese-heritage-centre-carousel02-rect.jpg,,12 Nanyang Drive
TouristAttraction,103.8595,1.30238,"Discover Kampong Glam's rich history, living traditions, excellent eateries and trendy shops in this vibrant neighbourhood.",Kampong Glam & Malay Culture in Singapore,www.yoursingapore.com/content/dam/desktop/global/see-do-singapore/places-to-see/kampong-glam-carousel01-rect-norender.jpg,,3 Muscat Street
TouristAttraction,103.8045,1.275,"This university arts research centre explores contemporary art through exhibitions, public programmes, residencies and research programmes.",Contemporary Arts Center,www.yoursingapore.com/content/dam/desktop/global/see-do-singapore/arts/afiq_omar_rect.jpg,,43 Malan Road
TouristAttraction,103.84934,1.2944,This experimental arts centre gives a space for contemporary artists to try out new concepts.,"The Substation, Singapore Contemporary Art Centre",UPDATING,,45 Armenian Street
TouristAttraction,103.84572,1.27828,"This museum holds more than 1,000 award-winning products, communications and concepts that will delight design fans.","Red Dot Design Museum, Singapore",www.yoursingapore.com/content/dam/desktop/global/see-do-singapore/arts/red-dot-design-museum-carousel01-rect.jpg,,"28 Maxwell Road, Red Dot Traffic"
TouristAttraction,103.851068,1.297424,"Singapore Art Museum is Singapore’s contemporary art museum, focused on Southeast Asian contemporary art.",Singapore Art Museum,www.yoursingapore.com/content/dam/desktop/global/see-do-singapore/arts/singapore-art-museum-carousel01-rect-norender.jpg,,71 Bras Basah Road
TouristAttraction,103.85528,1.2898,Catch a non-stop line-up of world-class performances at Singapore’s premier arts centre.,Esplanade Theatres on the Bay,www.yoursingapore.com/content/dam/desktop/global/see-do-singapore/arts/the-esplanade-carousel01-rect.jpg,,1 Esplanade Drive
TouristAttraction,103.85351,1.29882,"The National Design Centre is the nexus for all things design. It hosts design exhibitions, events and programmes that will quicken the pulse of design lovers.","National Design Centre, Singapore",www.yoursingapore.com/content/dam/desktop/global/see-do-singapore/arts/national-design-centre-carousel01-rect.jpg,,111 Middle Road
TouristAttraction,103.851641,1.28837,"After a four-year refurbishment, the Victoria Theatre and Concert Hall has since reopened, with its first official concert held there in August 2014.",Victoria Theatre Singapore,www.yoursingapore.com/content/dam/desktop/global/see-do-singapore/arts/victoria-theatre-concert-hall-caurousel01-rect.jpg,,11 Empress Place
TouristAttraction,103.7726864,1.3017749,Get a deeper insight into Asian art and artefacts at this museum on the campus of the National University of Singapore.,"NUS University Museum, Singapore",www.yoursingapore.com/content/dam/desktop/global/see-do-singapore/arts/nus-museum-carousel01-rect.jpg,,"50 Kent Ridge Crescent, National University of Singapore"
TouristAttraction,103.84692,1.32795,This revamped museum is a fitting tribute to the intriguing life and times of Chinese revolutionary leader Dr Sun Yat Sen.,Sun Yat Sen Memorial Hall,www.yoursingapore.com/content/dam/desktop/global/see-do-singapore/history/sun-yat-sen-memorial-hall-carousel01-rect.jpg,,12 Tai Gin Road
TouristAttraction,103.851723,1.287384,"Housed in a historical building by the Singapore River, this museum tells the stories of Asian civilisations through its permanent collections.",Asian Civilisations Museum & Singapore Museum,www.yoursingapore.com/content/dam/desktop/global/see-do-singapore/history/asian-civilizations-museum-carousel01-rect.jpg,,1 Empress Place
TouristAttraction,103.815914,1.31384,"Singapore’s oldest garden is a treasure trove for plant lovers, or those who simply want to have a good time outdoors.",Singapore Botanic Gardens,www.yoursingapore.com/content/dam/desktop/global/see-do-singapore/nature-wildlife/singapore-botanic-gardens-carousel01-rect.jpg,,1 Cluny Road
TouristAttraction,103.793023,1.404348,"Singapore’s zoo is a beautiful, award-winning wildlife park, where animals can roam freely in their natural habitats.",Singapore Zoo: Attractions & Things to Do,www.yoursingapore.com/content/dam/desktop/global/see-do-singapore/nature-wildlife/singapore-zoo-carousel04-rect.jpg,,80 Mandai Lake Road
TouristAttraction,103.789423,1.403732,"At the River Safari Singapore, meet manatees and monkeys, piranhas and pandas, as they congregate in and around the park’s waters.",River Safari Singapore,www.yoursingapore.com/content/dam/desktop/global/see-do-singapore/nature-wildlife/river-safari-singapore-carousel01-rect.jpg,,80 Mandai Lake Road
TouristAttraction,103.8192057,1.2713746,Getting to this hilltop dining and entertainment spot at Mount Faber by cable car  is half the fun.,Cable Car Singapore & Mount Faber,www.yoursingapore.com/content/dam/desktop/global/see-do-singapore/nature-wildlife/mount-faber-carouse01-rect.jpg,,109 Mount Faber Road
TouristAttraction,103.788061,1.402187,"Instead of going to a club, pop into another popular nightspot, the Night Safari, and mingle with a different crowd of animals at this special zoo.","Night Safari, Singapore",www.yoursingapore.com/content/dam/desktop/global/see-do-singapore/nature-wildlife/night-safari-carousel01-rect.jpg,,80 Mandai Lake Road
TouristAttraction,103.9592605,1.4137409,"Gravel roads, lush forests and abundant wildlife â€“ Pulau Ubin is a living showcase of what Singapore was like in the 1960s.",Pulau Ubin & Singapore Islands,UPDATING,,Pulau Ubin
TouristAttraction,103.84982,1.30723,Little India is a buzzing historic area that shows off the best of Singapore’s Indian community from vibrant culture to incredible shopping.,Little India Singapore: History & Culture,www.yoursingapore.com/content/dam/desktop/global/see-do-singapore/places-to-see/little-india-carousel01-rect.jpg,,60 Bukit Timah Road
TouristAttraction,103.83249,1.30429,"Orchard Road, Asia’s most famous shopping street, is home to fashion favourites, specialist stores and loads of other lifestyle choices.","Orchard Road, Singapore: Asia's Most Famous Shopping Street",www.yoursingapore.com/content/dam/desktop/global/see-do-singapore/places-to-see/orchard-carousel01-rect.jpg,,437 Orchard Road
TouristAttraction,103.822346,1.344843,The attractions around MacRitchie Reservoir is a playground of nature for those who love the outdoors.,MacRitchie Singapore & Singapore Nature Reserve,www.yoursingapore.com/content/dam/desktop/global/see-do-singapore/nature-wildlife/macritchie-nature-reserve-carousel01-rect.jpg,,MacRitchie Reservoir Park
TouristAttraction,103.863613,1.281568,"This sprawling garden in the city provides mesmerising waterfront views across three gardens, spanning over 101 hectares of reclaimed land.",Gardens by the Bay,www.yoursingapore.com/content/dam/desktop/global/see-do-singapore/nature-wildlife/gardens-by-the-bay-carousel02-rect.jpg,,18 Marina Gardens Drive
TouristAttraction,103.85222,1.29324,"The Civic District is where Singapore’s historical, architectural and cultural heritage started.","Civic District, Singapore",www.yoursingapore.com/content/dam/desktop/global/see-do-singapore/places-to-see/civic-district-carousel01-rect.jpg,,150 North Bridge Road
TouristAttraction,103.82057,1.26532,"HarbourFront is the place to go if you're hopping on a cruise from Singapore, taking a regional ferry or simply want to eat, shop or relax.","HarbourFront, Singapore",www.yoursingapore.com/content/dam/desktop/global/see-do-singapore/places-to-see/harbourfront-carousel01-rect.jpg,,81 Telok Blangah Road
TouristAttraction,103.85624,1.30069,"The Bras Basah.Bugis Precinct is the arts and heritage district in Singapore's civic centre, and home to museums and monuments.","Bras Basah.Bugis, Singapore Cultural District",www.yoursingapore.com/content/dam/desktop/global/see-do-singapore/places-to-see/bras-basah-bugis-carousel01-rect.jpg,,220 Victoria Street
TouristAttraction,103.85168,1.29731,"An extension of the Singapore Art Museum, SAM at 8Q features contemporary art exhibitions and is home to a Moving Image Gallery, where film screenings are held.",SAM at 8Q & Singapore Art Museum,www.yoursingapore.com/content/dam/desktop/global/see-do-singapore/arts/8q-sam-carousel01-rect.jpg,,8 Queen Street
TouristAttraction,103.84554,1.28311,"Also known as Masjid Chulia, Jamae Mosque is one of Singapore’s oldest mosques and a prominent landmark in Chinatown since the 1820s.",Jamae Mosque (Masjid Chulia) Singapore,www.yoursingapore.com/content/dam/desktop/global/see-do-singapore/culture-heritage/jamae-mosque-carousel01-rect.jpg,,218 South Bridge Road
TouristAttraction,103.8516,1.3029,This experimental art space housed in a tertiary arts college will help you deepen your understanding of contemporary art.,Institute of Contemporary Arts Singapore,www.yoursingapore.com/content/dam/desktop/global/see-do-singapore/arts/institute-for-contemporary-art-carousel01-rect.jpg,,"LASALLE College of the Arts, 1 McNally Street"
TouristAttraction,103.863137,1.289299,"This giant observation wheel offers 360-degree city views, a panorama that stretches to parts of Malaysia and Indonesia on a clear day.",Singapore Flyer,www.yoursingapore.com/content/dam/desktop/global/see-do-singapore/recreation-leisure/singapore-flyer-carousel01-rect-norender.jpg,,30 Raffles Avenue
TouristAttraction,103.86081,1.283456,"A feat of engineering, an architectural statement and a sheer aesthetic triumph, Marina Bay Sands<sup>®</sup> has upped the ante for buildings in Singapore.",Marina Bay Sands®,www.yoursingapore.com/content/dam/desktop/global/see-do-singapore/architecture/marina-bay-sands-carousel01-rect.jpg,,10 Bayfront Avenue
TouristAttraction,103.87159,1.28063,This innovative facility not only supplies water to Singaporeans and helps alleviate floods but also doubles up as a place for family fun.,Marina Barrage,www.yoursingapore.com/content/dam/desktop/global/see-do-singapore/architecture/marina-barrage-carousel01-rect.jpg,,8 Marina Gardens Drive
TouristAttraction,103.8152539,1.2762425,Lush jungle is broken up with a seriously creative twist in the fantastic form of the Henderson Waves bridge.,Henderson Waves Bridge,www.yoursingapore.com/content/dam/desktop/global/see-do-singapore/architecture/henderson-waves-carousel01-rect.jpg,,Henderson Road
TouristAttraction,103.801944,1.265833,"With its rich biodiversity and war relics, nature lovers and history enthusiasts will find plenty to do at Labrador Nature Reserve.",Labrador Nature Reserve,www.yoursingapore.com/content/dam/desktop/global/see-do-singapore/nature-wildlife/labrador-nature-reserve-carousel01-rect.jpg,,Labrador Villa Road
TouristAttraction,103.856454,1.2802848,"Marina Bay represents all things modern and super-stylish, from trendy dining destinations to exciting leisure spots.",Marina Bay Singapore: Attractions & Things to do,www.yoursingapore.com/content/dam/desktop/global/see-do-singapore/places-to-see/marina-bay-area-carousel01-rect.jpg,,11 Marina Boulevard
TouristAttraction,103.85899,1.2838785,"This iconic integrated resort boasts luxury accommodations, upscale shopping and an infinity pool with unparalleled views of the city.","Marina Bay Sands, Singapore",www.yoursingapore.com/content/dam/desktop/global/see-do-singapore/recreation-leisure/marina-bay-sands-carousel01-rect.jpg,,10 Bayfront Avenue
TouristAttraction,103.96371,1.407866,"A world away from shopping malls and glitzy hotels, this natural wonder is one of Singapore’s richest eco-systems.",Chek Jawa,www.yoursingapore.com/content/dam/desktop/global/see-do-singapore/nature-wildlife/chek-jawa-carousel03-rect-norender.jpg,,"Chek Jawa, Pulau Ubin"
TouristAttraction,103.854552,1.286862,"Half-fish and half-lion, the iconic Merlion resides at the waterfront Merlion Park.","Merlion Park, Singapore: Attractions & Things to Do",www.yoursingapore.com/content/dam/desktop/global/see-do-singapore/recreation-leisure/merlion-park-skypark-carousel01-rect.jpg,,One Fullerton
TouristAttraction,103.86081,1.283456,"The Marina Bay Sands<sup>®</sup> SkyPark is a roof like no other, perched 200 metres in the air with an infinity pool and observation deck in the clouds.",Marina Bay Sands® SkyPark,www.yoursingapore.com/content/dam/desktop/global/see-do-singapore/recreation-leisure/marina-bay-sands-skypark-carousel01-rect.jpg,,"Level 57, 10 Bayfront Avenue"
TouristAttraction,103.82033,1.25675,Experience endless excitement at Resorts World Sentosa with a variety of attractions and entertainment hot spots.,"Resorts World Sentosa, Singapore",www.yoursingapore.com/content/dam/desktop/global/see-do-singapore/recreation-leisure/resorts-world-sentosa-carousel01-rect.jpg,,"8 Sentosa Gateway, Sentosa Island"
TouristAttraction,103.817589,1.280569,This 10-km stretch of connecting trails lets you walk among the trees to observe a wide variety of flora and fauna in their natural habitat.,Singapore Garden & Singapore Park,www.yoursingapore.com/content/dam/desktop/global/see-do-singapore/recreation-leisure/resorts-world-sentosa-carousel01-rect.jpg,,"Henderson Road, Mount Faber Park, Telok Blangah Hill Park"
TouristAttraction,103.730149,1.44672,This ecological wonder will transport you into a world rich in animal and plant life.,Sungei Buloh,www.yoursingapore.com/content/dam/desktop/global/see-do-singapore/nature-wildlife/the-southern-ridges-carousel01-rect.jpg,,301 Neo Tiew Crescent
TouristAttraction,103.8194932,1.2573549,"Immerse yourself underwater at the S.E.A. Aquarium™ and discover more than 100,000 marine animals.",S.E.A. Aquarium,www.yoursingapore.com/content/dam/desktop/global/see-do-singapore/nature-wildlife/sungei-buloh-wetland-reserve-carousel01-rect.jpg,,"8 Sentosa Gateway, Sentosa Island"
TouristAttraction,103.84676,1.28848,"Get to know historic Singapore River and its famous quays: Boat Quay, Clarke Quay and Robertson Quay. After all, this is where it all began.",Singapore River: History & Culture Tours,www.yoursingapore.com/content/dam/desktop/global/see-do-singapore/places-to-see/singapore-river-carousel01-rect.jpg,,10 Eu Tong Sen Street
TouristAttraction,103.90448,1.30589,"Discover Peranakan culture as you stroll past heritage shophouses, quaint stores and eateries in this charming corner of eastern Singapore.",Joo Chiat/Katong: Singapore Peranakan Neighbourhood,www.yoursingapore.com/content/dam/desktop/global/see-do-singapore/places-to-see/joochiat-katong-carousel01-rect.jpg,,113 East Coast Road
TouristAttraction,103.82809,1.24883,"Sentosa Island is Singapore’s favourite leisure destination with exciting attractions, golden beaches, luxe retreats and the country’s first integrated resort.","Sentosa Island, Singapore: Leisure & Attractions",www.yoursingapore.com/content/dam/desktop/global/see-do-singapore/places-to-see/sentosa-carousel01-rect-norender.jpg,,33 Allanbrooke Road
TouristAttraction,103.843771,1.2817,"Singapore’s historic Chinatown is a bustling mix of old and new, filled with traditional shops and markets as well as cool stores and cafes.",Chinatown Singapore: History & Culture,www.yoursingapore.com/content/dam/desktop/global/see-do-singapore/places-to-see/chinatown-carousel01-rect.jpg,,2 Banda Street
TouristAttraction,103.84438,1.28162,This Tang-styled Chinese Buddhist temple in Chinatown gets its name from what the Buddhists regard as the Sacred Buddha Tooth Relic.,Buddha Tooth Relic Temple & Museum in Singapore,UPDATING,,288 South Bridge Road
TouristAttraction,103.851356,1.290141,Take in the region’s newest and largest museum of modern Singapore and Southeast Asian art housed within two of Singapore’s awe-inspiring national monuments.,National Gallery Singapore,www.yoursingapore.com/content/dam/desktop/global/see-do-singapore/arts/1095-national-gallery-singapore-carousel-01-rec.jpg,,1 St Andrew's Road
TouristAttraction,103.823808,1.254042,Step into the glamorous world of movies at this world-class theme park located within Resorts World Sentosa™.,Universal Studios Singapore™ Theme Park,www.yoursingapore.com/content/dam/desktop/global/see-do-singapore/recreation-leisure/universal-studios-singapore-carousel01-rect.jpg,,"8 Sentosa Gateway, Sentosa Island"
TouristAttraction,103.735872,1.33295,This enlightening attraction holds the largest collection of educational materials devoted to science in Singapore.,Singapore Science Centre,UPDATING,,15 Science Centre Road
TouristAttraction,103.84887,1.28292,Fuk Tak Chi Museum was once the oldest Chinese temple in Singapore and is an elegant example of restored architecture in Chinatown.,Fuk Tak Chi Museum & Places of Interest,www.yoursingapore.com/content/dam/desktop/global/see-do-singapore/culture-heritage/fuk-tak-chi-carousel02-rect.jpg,,76 Telok Ayer Street
TouristAttraction,103.90714,1.30726,"Step into this fully restored bona fide Peranakan family home, and admire the many antiques and heirlooms worthy of any museum collection.",Katong Antique House Singapore: Peranakan Heritage,www.yoursingapore.com/content/dam/desktop/global/see-do-singapore/culture-heritage/katong-antique-house-carousel01-rect.jpg,,208 East Coast Road
TouristAttraction,103.73,1.338611,A tranquil patch of imperial China in the west of Singapore is pleasant respite from the bustle of the city.,Chinese Garden Singapore,www.yoursingapore.com/content/dam/desktop/global/see-do-singapore/nature-wildlife/chinese-garden-carousel01-rect.jpg,,1 Chinese Garden Road
TouristAttraction,103.912187,1.300784,"With so many attractions packed into this 15-km stretch of beaches, you’ll never run out of things to do.",East Coast Park Singapore,www.yoursingapore.com/content/dam/desktop/global/see-do-singapore/nature-wildlife/east-coast-park-carousel03-rect.jpg,,Along East Coast Parkway and East Coast Park Service Road
TouristAttraction,103.846509,1.295382,"Whether you’re a history buff, music fan or nature lover, this historic landmark on a hill is full of surprises.",Fort Canning Park,www.yoursingapore.com/content/dam/desktop/global/see-do-singapore/nature-wildlife/fort-canning-park-carousel01-rect.jpg,,"Bounded by Hill Street, Canning Rise, Clemenceau Avenue and River Valley Road"
TouristAttraction,103.8605232,1.2230965,"If youâ€™re looking for local heritage off the beaten track with a good dash of nature, Kusu Island hits the spot.","Kusu Island, Singapore",UPDATING,,Kusu Island
TouristAttraction,103.706442,1.318706,"Jurong Bird Park has almost every species to impress avian lovers, along with fun exhibits, interactive shows, and of course, its charming residents.","Jurong Bird Park, Singapore: Attractions & Things to Do",www.yoursingapore.com/content/dam/desktop/global/see-do-singapore/nature-wildlife/jurong-bird-park-carousel01-rect.jpg,,2 Jurong Hill
TouristAttraction,103.799724,1.279069,Lose yourself in this dreamscape of stunning gardens that will make you forget the bustle of city.,HortPark,www.yoursingapore.com/content/dam/desktop/global/see-do-singapore/nature-wildlife/hortpark-carousel01-rect.jpg,,33 Hyderabad Road
TouristAttraction,103.8195254,1.2573388,Make a big splash at this aquatic adventure park at Resorts World™ Sentosa.,Adventure Cove Waterpark™ Singapore,www.yoursingapore.com/content/dam/desktop/global/see-do-singapore/recreation-leisure/adventure-cove-carousel01-rect.jpg,,"8 Sentosa Gateway, Sentosa Island"
TouristAttraction,103.8516,1.3029,How can something that fits so perfectly into a cityscape evoke nature as well? It all lies in the design of Lasalle College of the Arts.,Lasalle College of the Arts,www.yoursingapore.com/content/dam/desktop/global/see-do-singapore/architecture/lasalle-college-of-the-arts-carousel01-rect.jpg,,1 McNally Street
Monuments,103.85216,1.295594375,"Owing to its central location, the Convent of the Holy Infant Jesus was also affectionately referred to as the Town Convent in the past.",Former Convent of the Holy Infant Jesus Chapel and Caldwell House (now CHIJMES),https://roots.sg/~/media/Roots/Images/monuments/048-former-convent-of-the-holy-infant-jesus-chapel-and-caldwell-house/former-chij-and-caldwell-house-01.png,,
Monuments,103.8536909,1.30448454,Abdul Gafoor Mosque's charming architecture stands out amidst the surrounding shophouses in the historic Little India district.,Abdul Gafoor Mosque,https://roots.sg/~/media/Roots/Images/monuments/053-abdul-gafoor-mosque/abdul-gafoor-mosque-01.png,,
Monuments,103.8471534,1.280501643,"Located on Telok Ayer Street, a short walk from Thian Hock Keng, the Former Keng Teck Whay Building, and the Former Nagore Dargah, Al-Abrar Mosque is one of Singaporeâ€™s oldest mosques.",Al-Abrar Mosque,https://roots.sg/~/media/Roots/Images/monuments/058-al-abrar-mosque/al-abrar-mosque-01.png,,
Monuments,103.8432919,1.307130593,"Shielded from the bustling Orchard Road by a sprawling green lung, the Istana (‘Palace’ in Malay) is the official residence of the President of the Republic of Singapore.",The Istana and Sri Temasek,https://roots.sg/~/media/Roots/Images/monuments/039-the-istana-and-sri-temasek/the-istana-01.png,,
Monuments,103.8504252,1.28053825,"Affectionately known as Lau Pa Sat (‘Old Market’) by generations of Singaporeans, the Former Telok Ayer Market was one of Singapore’s oldest markets.",Former Telok Ayer Market (now known as Lau Pa Sat),https://roots.sg/~/media/Roots/Images/monuments/063-former-telok-ayer-market/former-telok-ayer-market-01.png,,
Monuments,103.8512591,1.289747482,Amidst the colonial buildings and skyscrapers of the Civic District rises the copper-green dome of the Former Supreme Court.,Former Supreme Court,https://roots.sg/~/media/Roots/Images/monuments/043-former-supreme-court/former-supreme-court-01.png,,
Monuments,103.8491639,1.294236311,"A stoneâ€™s throw from the Armenian Church is a century-old building that used to house Tao Nan School, the first modern Chinese school in Singapore and one of the earliest of its kind in the Straits Se",Former Tao Nan School (now The Peranakan Museum),https://roots.sg/~/media/Roots/Images/monuments/036-former-tao-nan-school/former-tao-nan-school.png,,
Monuments,103.8430438,1.286742323,The Former Ministry of Labour Building is located not far away from the Former Thong Chai Medical Institution and Tan Si Chong Su.,Former Ministry of Labour Building (now Family Justice Courts),https://roots.sg/~/media/Roots/Images/monuments/035-former-ministry-of-labour-building/former-ministry-of-labour-building-now-family-justice-courts-01.png,,
Monuments,103.8478013,1.281457101,"The Former Nagore Dargah is situated on the historic Telok Ayer Street, a short distance from Telok Ayer Chinese Methodist Church, Al-Abrar Mosque, Thian Hock Keng, and the Former Keng Teck Whay Build",Former Nagore Dargah,https://roots.sg/~/media/Roots/Images/monuments/059-former-nagore-dargah/former-nagore-dargah-01.png,,
Monuments,103.8453056,1.282517934,"Together with Jamae Mosque, Sri Mariamman Temple – Singapore’s oldest Hindu temple – is an enduring icon on South Bridge Road which is a part of Chinatown.",Sri Mariamman Temple,https://roots.sg/~/media/Roots/Images/monuments/064-sri-mariamman-temple/sri-mariamman-temple-01.png,,
Monuments,103.8559032,1.313328846,"Formerly known as Sri Narasimha Perumal Temple, Sri Srinivasa Perumal Temple is the first Hindu temple in Singapore dedicated to Sri Perumal, the Hindu deity more commonly known as Vishnu.",Sri Perumal Temple,https://roots.sg/~/media/Roots/Images/monuments/055-sri-srinivasa-perumal-temple/sri-srinivasa-perumal-temple-01.png,,
Monuments,103.8474892,1.281109555,Thian Hock Keng (‘Palace of Heavenly Happiness’) is one of Singapore’s oldest Hokkien temples.,Thian Hock Keng,https://roots.sg/~/media/Roots/Images/monuments/067-thian-hock-keng/thian-hock-keng-temple-01.png,,
Monuments,103.8512359,1.296031642,The Cathedral of the Good Shepherd is Singapore's oldest Catholic place of worship and the seat of the local Roman Catholic archbishop.,Cathedral of the Good Shepherd,https://roots.sg/~/media/Roots/Images/monuments/065-cathedral-of-the-good-shepherd/cathedral-of-the-good-shepherd-01.png,,
Monuments,103.8514224,1.287569861,"Situated at the mouth of the Singapore River, the Former Empress Place Building was an important government building in Singapore up to the 1980s.",Former Empress Place Building (now Asian Civilisations Museum),https://roots.sg/~/media/Roots/Images/monuments/042-former-empress-place-building/former-empress-place-building.png,,
Monuments,103.8341268,1.308122158,"The Tower Wing of the present-day Goodwood Park Hotel was home to the German Teutonia Club, one of the earliest European national clubs in Singapore.",Goodwood Park Hotel (Tower Block),https://roots.sg/~/media/Roots/Images/monuments/049-goodwood-park-hotel/goodwood-park-hotel-01.png,,
Monuments,103.8515209,1.288150282,In the heart of Singaporeâ€™s historic Civic District stand the magnificent Victoria Theatre and Victoria Concert Hall with the iconic clock tower.,Victoria Theatre and Concert Hall,https://roots.sg/~/media/Roots/Images/monuments/046-victoria-theatre-and-victoria-concert-hall/victoria-theatre-and-victoria-concert-hall-01.png,,
Monuments,103.8484643,1.28250191,"Not far from Former Nagore Dargah on Telok Ayer Street is Ying Fo Fui Kun, Singaporeâ€™s oldest Hakka clan association.",Ying Fo Fui Kun,https://roots.sg/~/media/Roots/Images/monuments/030-ying-fo-fui-kun/ying-fo-fui-kun-01.png,,
Monuments,103.8490743,1.293002487,The Armenian Apostolic Church of Saint Gregory the Illuminator – commonly called the Armenian Church – is Singapore's oldest Christian church,Armenian Apostolic Church of Saint Gregory the Illuminator,https://roots.sg/~/media/Roots/Images/monuments/069-armenian-apostolic-church-of-saint-gregory-the-illuminator/armenian-church-01.png,,
Monuments,103.8432425,1.298499336,"Standing out prominently from its modern surroundings, the Chinese-style Former House of Tan Yeok Nee is the sole survivor of the ‘Four Grand Mansions’ that were built by Teochew towkays (businessmen)",Former House of Tan Yeok Nee,https://roots.sg/~/media/Roots/Images/monuments/060-former-house-of-tan-yoke-nee/house-of-tan-yoke-nee-01.png,,
Monuments,103.8333301,1.280550064,"Standing beside the College of Medicine Building is a smaller, two-storey building known as Tan Teck Guan Building.",Tan Teck Guan Building,https://roots.sg/~/media/Roots/Images/monuments/024-tan-teck-guan-building/tan-teck-guan-building-01.png,,
Monuments,103.8478534,1.299331872,The Art Deco façade wall fronting the modern glass architecture of The Cathay is the remnant of what used to be Malaya’s tallest building.,Former Cathay Building (now The Cathay),https://roots.sg/~/media/Roots/Images/monuments/022-former-cathay-building/former-cathay-building-01.png,,
Monuments,103.8454341,1.287415974,"Home to the first free traditional Chinese medical clinic for the poor in Singapore, the Former Thong Chai Medical Institution testifies to the Chinese pioneersâ€™ spirit of mutual assistance and their",Former Thong Chai Medical Institution,https://roots.sg/~/media/Roots/Images/monuments/066-former-thong-chai-medical-institution/former-thong-chai-medical-institution-01.png,,
Monuments,103.8788447,1.355271227,Tou Mu Kung Temple is the oldest temple in Singapore dedicated to the Taoist deity Jiu Huang Ye (‘Nine Emperors’ or ‘Ninth Emperor’).,Tou Mu Kung Temple,https://roots.sg/~/media/Roots/Images/monuments/017-tou-mu-kung-temple/tou-mu-kung-01.png,,
Monuments,103.8512694,1.297879983,The Church of Saints Peter and Paul is one of the oldest Catholic churches in Singapore that catered to a predominantly Chinese congregation.,Church of Saints Peter and Paul,https://roots.sg/~/media/Roots/Images/monuments/021-church-of-st-peter-and-st-paul/church-of-st-peter-and-st-paul-01.png,,
Monuments,103.8408565,1.293303497,"Hong San See (‘Temple on Phoenix Hill’), perched on the side of Institution Hill off Mohamed Sultan Road, was established by Hokkien immigrants from Nan’an (or Lam Ann) County in Fujian Province, Chin",Hong San See,https://roots.sg/~/media/Roots/Images/monuments/056-hong-san-see/hong-san-see-01.png,,
Monuments,103.8014256,1.325110804,The Chinese High School Clock Tower Building is the icon of the oldest Chinese-medium high school in Singapore and has been a visual landmark of Bukit Timah Road since its completion.,Chinese High School Clock Tower,https://roots.sg/~/media/Roots/Images/monuments/028-chinese-high-school-clock-tower-building/chinese-high-school-clock-tower-building-01.png,,
Monuments,103.860107,1.302421,Within the historic district of Kampong Gelam lies Istana Kampong Gelam ('Gelam Village Palace').,Istana Kampong Gelam,https://roots.sg/~/media/Roots/Images/monuments/001-istana-kampong-gelam/istana-kampong-gelam-06.jpg,,
Monuments,103.851051,1.297259,Saint Joseph's Institution is the oldest Catholic boys' school in Singapore and was founded by the Christian Brothers (formally known as the Institute of the Brothers of the Christian Schools),Former Saint Joseph's Institution (now Singapore Art Museum),https://roots.sg/~/media/Roots/Images/monuments/041-former-saint-josephs-institution/former-saint-josephs-institution-01.png,,
Monuments,103.850833,1.289117,Tucked away in a corner near the Padang is a beautiful structure that once housed the Attorney-General's Chambers.,Former Attorney-Generals Chambers (now Parliament House Block C),https://roots.sg/~/media/Roots/Images/monuments/040-former-attorney-generals-chambers/former-attorney-generals-chambers-01.png,,
Monuments,103.683124,1.348315,"Nanyang University, affectionately known as Nantah, was the first Chinese-language university in Southeast Asia and the second university in Singapore.","Former Nanyang University Library and Administration Building, Memorial and Arch",https://roots.sg/~/media/Roots/Images/monuments/029-former-nanyang-university-library-and-administration-building-memorial-and-arch/nanyang-university-library.png,,
Monuments,103.8982177,1.373625931,The Church of the Nativity of the Blessed Virgin Mary is one of the earliest Catholic churches built in the suburbs of Singapore.,Church of the Nativity of the Blessed Virgin Mary,https://roots.sg/~/media/Roots/Images/monuments/018-church-of-the-nativity-of-the-blessed-virgin-mary/church-of-the-nativity-of-the-blessed-virgin-mary-1.png,,
Monuments,103.8511097,1.301714219,"Prinsep Street Presbyterian Church is one of Singapore’s oldest Presbyterian churches. Its unique façade stands out from the modern buildings surrounding it, serving as a reminder of the contributions",Prinsep Street Presbyterian Church,https://roots.sg/~/media/Roots/Images/monuments/027-prinsep-street-presbyterian-church/prinsep-street-presbyterian-church-02.png,,
Monuments,103.8151312,1.30478978,"Saint Georgeâ€™s Church is situated in the quiet environs off Minden Road, a short distance from the bustling shopping district of Orchard Road.",St. George's Church,https://roots.sg/~/media/Roots/Images/monuments/054-st-georges-church/st-georges-church-01.png,,
Monuments,103.8531521,1.298358197,Saint Josephâ€™s Church on Victoria Street was the headquarters of the Portuguese Mission in Singapore.,St Joseph's Church,https://roots.sg/~/media/Roots/Images/monuments/019-st-josephs-church/st-josephs-church.png,,
Monuments,103.843195,1.294261,"Sri Thendayuthapani Temple, commonly referred to as the Chettiars’ Temple, is one of Singapore’s oldest Hindu temples dedicated to Murugan, the Hindu deity who is also known as Sri Thendayuthapani.",Sri Thendayuthapani Temple,https://roots.sg/~/media/Roots/Images/monuments/004-sri-thendayuthapani-temple/sri-thendayuthapani-temple-02.png,,
Monuments,103.870358,1.332938,Alkaff Upper Serangoon Mosque was constructed by the mercantile and landowning Alkaff family to serve the spiritual needs of the local Muslim community at large.,Alkaff Upper Serangoon Mosque,https://roots.sg/~/media/Roots/Images/monuments/003-alkaff-upper-serangoon-mosque/alkaff-upper-serangoon-mosque-02.png,,
Monuments,103.742211,1.328984,"On a hill overlooking Jurong estate, Jurong Town Hall once served as the headquarters of Jurong Town Corporation (JTC, presently JTC Corporation).",Jurong Town Hall,https://roots.sg/~/media/Roots/Images/monuments/002-jurong-town-hall/01-jurong-town-hall.png,,
Monuments,103.769162,1.352943,"Built atop a little hill, the Former Ford Factory has been a visual landmark in Bukit Timah since its completion in 1941.",Former Ford Factory (now Memories at Old Ford Factory),https://roots.sg/~/media/Roots/Images/monuments/016-former-ford-factory/former-ford-factory-01.png,,
Monuments,103.816846,1.318323,"Located next to the Singapore Botanic Gardens, the Former Raffles College is well hidden from the public eye.",Former Raffles College (now NUS Campus at Bukit Timah),https://roots.sg/~/media/Roots/Images/monuments/014-former-raffles-college/former-raffles-college-01.png,,
Monuments,103.836289,1.280736,Amidst the modern blocks in the sprawling compound of Singapore General Hospital stands a Neoclassical building with its distinctive clock tower.,Bowyer Block,https://roots.sg/~/media/Roots/Images/monuments/013-bowyer-block/bowyer-block-01.png,,
Monuments,103.827888,1.272781,"Standing atop a little hill, the Church of Saint Teresa was originally constructed for the spiritual needs of the Hokkien-speaking Catholics living in the town area.",Church of St Teresa,https://roots.sg/~/media/Roots/Images/monuments/012-church-of-st-teresa/church-of-st-teresa-01.png,,
Monuments,103.824848,1.264685,The Former Saint James Power Station was the first coal-fired power station on the island.,Former St James Power Station,https://roots.sg/~/media/Roots/Images/monuments/011-former-st-james-power-station/st-james-power-station-01.png,,
Monuments,103.8478,1.281146,"Once home to one of Singapore's oldest self-help organisations, the Former Keng Teck Whay Building is situated next to Thian Hock Keng, and is a short walk from Al-Abrar Mosque and the Former Nagore D",Former Keng Teck Whay Building,https://roots.sg/~/media/Roots/Images/monuments/015-former-keng-teck-whay-building/former-keng-teck-whay-building.png,,
Monuments,103.819148,1.325597,"The stately Former Command House is located near Bukit Timah Road, a major road constructed during the mid-nineteenth century and one of the last defences against the invading Japanese troops in 1942.",Former Command House,https://roots.sg/~/media/Roots/Images/monuments/010-former-command-house/former-command-house-01.png,,
Monuments,103.84897,1.276201,"The Former Singapore Conference Hall and Trade Union House was constructed to house the headquarters of the National Trades Union Congress (NTUC) as the fulfilment of an election promise, as well as t",Former Singapore Conference Hall and Trade Union House (now Singapore Conference Hall),https://roots.sg/~/media/Roots/Images/monuments/008-former-singapore-conference-hall-and-trade-union-house/former-singapore-conference-hall-and-trade-union-house-01.png,,
Monuments,103.853389,1.289684,"Prior to the first land reclamation in 1843, the original shoreline of Singapore ran across the present Padang.",Esplanade Park Memorials,https://roots.sg/~/media/Roots/Images/monuments/009-esplanade-park-memorials/esplanade-park-memorial-tan-kim-seng-fountain.png,,
Monuments,103.8369,1.272797,The Former Tanjong Pagar Railway Station was previously the southernmost terminal station of the Federated Malay States Railways.,Former Tanjong Pagar Railway Station,https://roots.sg/~/media/Roots/Images/monuments/007-tanjong-pagar-railway-station/tanjong-pagar-railway-station-03.png,,
Monuments,103.854717,1.292883,"Not far from the Esplanade Park Memorials stands the Civilian War Memorial, the first memorial in Singapore dedicated to the civilian victims of the Japanese Occupation (1942â€“1945).",Civilian War Memorial,https://roots.sg/~/media/Roots/Images/monuments/006-civilian-war-memorial/civilian-war-memorial-01.png,,
Monuments,103.890715,1.305363,"As one of Singaporeâ€™s oldest Chinese high schools, Chung Cheng High School was among the firsts to make higher education accessible to Chinese youth.",Chung Cheng High School (Main) Administration Building and Entrance Arch,https://roots.sg/~/media/Roots/Images/monuments/005-chung-cheng-high-school-main-administration-building-and-entrance-arch/01-chung-cheng-high-school.png,,
Monuments,103.8560707,1.303210541,The Church of our Lady of Lourdes,Church of Our Lady of Lourdes,https://roots.sg/~/media/Roots/Images/monuments/020-church-of-our-lady-of-lourdes/church-of-our-lady-of-lourdes.png,,
Monuments,103.8245445,1.447377772,"Surrounded by several ancillary buildings and facilities on a sprawling estate, the Former Admiralty House used to accommodate key military commanders based in Singapore. It bears testimony to the for",Former Admiralty House,https://roots.sg/~/media/Roots/Images/monuments/026-former-admiralty-house/former-admiralty-house-01.png,,
Monuments,103.8482727,1.290884559,"Nicknamed the ‘Police Skyscraper’ in the past, the Former Hill Street Police Station is prominently located at the junction of Hill Street and River Valley Road.",Former Hill Street Police Station,https://roots.sg/~/media/Roots/Images/monuments/033-former-hill-street-police-station/former-hill-street-police-station-01.png,,
Monuments,103.8508036,1.288749609,The Former Parliament House is likely to be the oldest surviving building in Singapore.,Former Parliament House and Annex Building (now The Arts House),https://roots.sg/~/media/Roots/Images/monuments/045-former-parliament-house-and-annex-building/former-parliament-house-and-annex-building.png,,
Monuments,103.8542744,1.294934986,Raffles Hotel is one of the most well-known luxury hotels in Singapore and the oldest surviving establishment of its kind on the island.,Raffles Hotel,https://roots.sg/~/media/Roots/Images/monuments/051-raffles-hotel/raffles-hotel-01.png,,
Monuments,103.848486,1.296661822,"With its wide faรงade and large dome, the National Museum of Singapore has been a prominent landmark on Stamford Road for over a century.",National Museum of Singapore,https://roots.sg/~/media/Roots/Images/monuments/044-national-museum-of-singapore/national-museum-of-singapore-03.jpg,,
Monuments,103.8472533,1.328134534,Sun Yat-sen Nanyang Memorial Hall is one of the few surviving examples of villas that were once common sights in British Singapore.,Former Sun Yat Sen Villa (now Sun Yat Sen Nanyang Memorial Hall),https://roots.sg/~/media/Roots/Images/monuments/038-former-sun-yat-sen-villa/former-sun-yat-sen-villa.png,,
Monuments,103.8593641,1.302540103,"Formerly the royal mosque of the Sultan of Johor, Sultan Mosque represents the solidarity and unity of Muslims in Singapore.",Sultan Mosque,https://roots.sg/~/media/Roots/Images/monuments/057-sultan-mosque/sultan-mosque-01.png,,
Monuments,103.8505995,1.298273205,"Located in the former Jewish neighbourhood, Maghain Aboth Synagogue is the oldest surviving synagogue not only in Singapore, but also in Southeast Asia. It is one of Singaporeâ€™s two synagogues, the ot",Maghain Aboth Synagogue,https://roots.sg/~/media/Roots/Images/monuments/034-maghain-aboth-synagogue/maghain_aboth_synagogue_01.png,,
Monuments,103.8521927,1.292188356,Saint Andrew's Cathedral is Singaporeâ€™s oldest surviving Anglican place of worship and is the seat of the Anglican bishop of Singapore.,St. Andrew's Cathedral,https://roots.sg/~/media/Roots/Images/monuments/070-saint-andrews-cathedral/st-andrews-cathedral-01.png,,
Monuments,103.84292,1.289095571,The history of Tan Si Chong Su (‘Ancestral Hall of the Tan Clan’) is inextricably linked to the influx of Chinese immigrants into Singapore during the late nineteenth century.,Tan Si Chong Su,https://roots.sg/~/media/Roots/Images/monuments/061-tan-si-chong-su/tan-si-chong-su-01.png,,
Monuments,103.8426639,1.297256922,"Chesed-El Synagogue on Oxley Rise is one of two synagogues in Singapore, the other being Maghain Aboth Synagogue on Waterloo Street.",Chesed-El Synagogue,https://roots.sg/~/media/Roots/Images/monuments/031-chesed-el-synagogue/chesed-el-synagogue-01.png,,
Monuments,103.8491889,1.292154101,The Central Fire Station is the oldest surviving fire station in Singapore.,Central Fire Station,https://roots.sg/~/media/Roots/Images/monuments/032-central-fire-station/central-fire-station-01.png,,
Monuments,103.851837,1.290885802,"Located in the heart of the Civic District, the Former City Hall served as an important government office in Singapore.",Former City Hall,https://roots.sg/~/media/Roots/Images/monuments/047-former-city-hall/former-city-hall-01.png,,
Monuments,103.8341767,1.280845791,"The College of Medicine Building is located at the rear of the Singapore General Hospitalâ€™s compound, next to Tan Teck Guan Building.",College of Medicine Building,https://roots.sg/~/media/Roots/Images/monuments/025-college-of-medicine-building/college-of-medicine-building-01.png,,
Monuments,103.8469914,1.278473606,"Originally known as the Chinese Methodist Church, Telok Ayer Chinese Methodist Church was the first church established to cater exclusively to the spiritual needs of the Chinese Methodist community in",Telok Ayer Chinese Methodist Church,https://roots.sg/~/media/Roots/Images/monuments/050-telok-ayer-chinese-methodist-church/telok-ayer-chinese-methodist-church-01.png,,
Monuments,103.8628607,1.302888968,"Hajjah Fatimah Mosque is one of the oldest mosques in Singapore, a rare example of one named after a woman.",Hajjah Fatimah Mosque,https://roots.sg/~/media/Roots/Images/monuments/068-hajjah-fatimah-mosque/hajjah-fatimah-mosque-01.png,,
Monuments,103.8453379,1.283200368,"Like the nearby Sri Mariamman Temple, Jamae Mosque has been a familiar landmark on South Bridge Road since the mid-nineteenth century.",Jamae Mosque,https://roots.sg/~/media/Roots/Images/monuments/062-jamae-mosque/jamae-mosque-01.png,,
Monuments,103.8461263,1.299208616,"Located not far from the Istana and the Former Cathay Building, MacDonald House has a relatively plain and unadorned faรงade that does not appear to be exceptionally striking.",MacDonald House,https://roots.sg/~/media/Roots/Images/monuments/023-macdonald-house/macdonald-house-01.png,,
Monuments,103.8573425,1.330344903,The traditional architecture of Lian Shan Shuang Lin Monastery – or ‘Twin Grove Monastery on Lotus Hill’ – stands out amidst the modern high-rise apartment blocks in the Toa Payoh neighbourhood.,Former Siong Lim Temple (now Lian Shan Shuang Lin Monastery),https://roots.sg/~/media/Roots/Images/monuments/052-former-siong-lim-temple/lian-shan-shuang-lin-monastery-01.png,,
